Example116.52  0.15 J97BF 330.35634   72.84364   47.71467    0.14340  0.5722075  0.25838359   2.4413278    FO 250220    20   1   23 days 0.60         Find_Orb   0000 Example1                    19971115
